HST                     
1 20580U 90037B   26158.29828937  .00006010  00000+0  18954-3 0  9990
2 20580  28.4712 148.1547 0001938  44.7656 315.3096 15.30642118787059
POLAR                   
1 23802U 96013A   26158.02404796  .00000119  00000+0  00000+0 0  9997
2 23802  79.8419 227.1714 6460465 209.4311  89.2180  1.29846147144728
SWAS                    
1 25560U 98071A   26159.00412722  .00004974  00000+0  31519-3 0  9999
2 25560  69.8961 251.1992 0008926 268.2702  91.7439 15.09569323495880
CXO                     
1 25867U 99040B   26161.44248451  .00000667  00000+0  00000+0 0  9995
2 25867  56.0540 116.8503 7852548 310.2578   0.2529  0.37805334 17299
XMM-NEWTON              
1 25989U 99066A   26157.37875651  .00000096  00000+0  00000+0 0  9999
2 25989  64.5482 283.1267 4678331  65.0797   0.1118  0.50125302 22956
TERRA                   
1 25994U 99068A   26159.24811162  .00000394  00000+0  89160-4 0  9992
2 25994  97.9459 209.1485 0000940 232.4953 169.4668 14.61096117408305
CLUSTER II-FM7 (SAMBA)  
1 26410U 00041A   26161.44581900  .00004459  00000+0  00000+0 0  9995
2 26410 149.9133  49.6129 9048172 266.6863 359.9094  0.44840214 20271
CLUSTER II-FM8 (TANGO)  
1 26464U 00045B   26157.18212104  .00004544  00000+0  00000+0 0  9996
2 26464 150.1407  49.6985 9046201 266.6195   3.2041  0.44406384 20263
ODIN                    
1 26702U 01007A   26159.06855770  .00163930  00000+0  11910-2 0  9991
2 26702  97.3856 199.4433 0006607 154.2551 205.9043 15.72855402387967
TIMED                   
1 26998U 01055B   26159.31048537  .00001428  00000+0  13324-3 0  9999
2 26998  74.0679 252.8910 0000616 353.7651   6.3526 14.95275258329496
CORIOLIS                
1 27640U 03001A   26159.24811287  .00000103  00000+0  69074-4 0  9992
2 27640  98.7126 166.2694 0012968 236.1807 123.8135 14.19942386212950
SORCE                   
1 27651U 03004A   26158.70861575  .00003445  00000+0  25720-3 0  9993
2 27651  39.9917 315.7552 0017869 339.7662  20.2423 15.03662902270473
MOST                    
1 27843U 03031D   26158.98930717  .00000080  00000+0  56672-4 0  9994
2 27843  98.7045 166.8436 0008707 280.5785  79.4412 14.21320667189401
SCISAT 1                
1 27858U 03036A   26159.24416861  .00000561  00000+0  76269-4 0  9992
2 27858  73.9287 189.1117 0008689 258.0264 101.9939 14.81438989230129
SWIFT                   
1 28485U 04047A   26157.62516102  .00061964  00000+0  53892-3 0  9991
2 28485  20.5528 266.3162 0002758 138.0120 222.0537 15.67271412185207
HINODE (SOLAR-B)        
1 29479U 06041A   26159.05567239  .00000843  00000+0  15323-3 0  9993
2 29479  98.0547 175.3428 0016440 321.0348  38.9672 14.68610972 53537
SHIJIAN-6 02A (SJ-6 02A)
1 29505U 06046A   26159.25212813  .00006644  00000+0  34121-3 0  9997
2 29505  97.6363 200.2518 0003638 146.2613 213.8851 15.16838348 70910
SHIJIAN-6 02B (SJ-6 02B)
1 29506U 06046B   26159.28227170  .00001578  00000+0  12692-3 0  9993
2 29506  97.7162 188.3960 0014719  86.1563 274.1344 15.01354802 69405
FGRST (GLAST)           
1 33053U 08029A   26158.99603507  .00004036  00000+0  14871-3 0  9990
2 33053  25.5826 268.3003 0007830 214.9845 145.0179 15.23903473994430
SDO                     
1 36395U 10005A   26158.33980133 -.00000060  00000+0  00000+0 0  9999
2 36395  34.6306  86.4930 0001446  51.5823 138.0028  1.00270991 59969
CRYOSAT 2               
1 36508U 10013A   26159.25971523  .00000136  00000+0  33031-4 0  9997
2 36508  92.0348 275.1320 0002228  86.1590 273.9872 14.51896562856782
X-SAT                   
1 37389U 11015C   26159.23923640  .00000098  00000+0  59023-4 0  9999
2 37389  98.3512 136.6893 0014517  14.4756 345.6838 14.25203672786405
GCOM-W1 (SHIZUKU)       
1 38337U 12025A   26159.32217302  .00000494  00000+0  11956-3 0  9998
2 38337  98.2020 100.0122 0001865  81.7577  33.7504 14.57116514747744
NUSTAR                  
1 38358U 12031A   26159.33337963  .00019196  00000+0  11310-2 0  9997
2 38358   6.0265 100.5324 0008186 327.0931 140.0296 15.08708876  1307
NEOSSAT                 
1 39089U 13009D   26159.01088665  .00000155  00000+0  68237-4 0  9999
2 39089  98.4176 339.2620 0009781 274.4637  85.5431 14.35823288695425
BRITE-AUSTRIA           
1 39091U 13009F   26158.73546881  .00000212  00000+0  86658-4 0  9990
2 39091  98.3993 338.4054 0008957 268.4216  91.5944 14.36538507695699
IRIS                    
1 39197U 13033A   26159.14114199  .00001111  00000+0  13330-3 0  9998
2 39197  97.9336 358.4465 0024252 352.1034   7.9796 14.85867394699036
HISAKI (SPRINT-A)       
1 39253U 13049A   26158.99601679  .00000131  00000+0  88965-4 0  9992
2 39253  29.7207 266.7414 0136906 302.3712  56.3675 13.55543740630170
CASSIOPE                
1 39265U 13055A   26159.23733971  .00039998 -60806-6  44108-3 0  9992
2 39265  80.9146  77.5817 0295711  92.4503 271.0614 15.24378819666308
STSAT-3                 
1 39422U 13066G   26159.25669369  .00003113  00000+0  23739-3 0  9999
2 39422  97.6217 129.2892 0010961  68.4546 291.7847 15.02704361682864
SWARM B                 
1 39451U 13067A   26159.23017799  .00003455  00000+0  12341-3 0  9990
2 39451  87.7441 345.0389 0003388  90.4307 269.7330 15.28496929681877
