OBJECT_NAME,OBJECT_ID,EPOCH,MEAN_MOTION,ECCENTRICITY,INCLINATION,RA_OF_ASC_NODE,ARG_OF_PERICENTER,MEAN_ANOMALY,EPHEMERIS_TYPE,CLASSIFICATION_TYPE,NORAD_CAT_ID,ELEMENT_SET_NO,REV_AT_EPOCH,BSTAR,MEAN_MOTION_DOT,MEAN_MOTION_DDOT
HST,1990-037B,2026-06-07T07:09:32.201568,15.30642118,.0001938,28.4712,148.1547,44.7656,315.3096,0,U,20580,999,78705,.18954E-3,.601E-4,0
POLAR,1996-013A,2026-06-07T00:34:37.743744,1.29846147,.64604658,79.8419,227.1714,209.4311,89.2180,0,U,23802,999,14472,0,.119E-5,0
SWAS,1998-071A,2026-06-08T00:05:56.591808,15.09569323,.00089269,69.8961,251.1992,268.2702,91.7439,0,U,25560,999,49588,.31518545E-3,.4974E-4,0
CXO,1999-040B,2026-06-10T10:37:10.661664,0.37805334,.78525481,56.0540,116.8503,310.2578,0.2529,0,U,25867,999,1729,0,.667E-5,0
XMM-NEWTON,1999-066A,2026-06-06T09:05:24.562464,0.50125302,.46783319,64.5482,283.1267,65.0797,0.1118,0,U,25989,999,2295,0,.96E-6,0
TERRA,1999-068A,2026-06-08T05:57:16.843968,14.61096117,.00009408,97.9459,209.1485,232.4953,169.4668,0,U,25994,999,40830,.89159746E-4,.394E-5,0
CLUSTER II-FM7 (SAMBA),2000-041A,2026-06-10T10:41:58.761600,0.44840214,.90481724,149.9133,49.6129,266.6863,359.9094,0,U,26410,999,2027,0,.4459E-4,0
CLUSTER II-FM8 (TANGO),2000-045B,2026-06-06T04:22:15.257856,0.44406384,.90462015,150.1407,49.6985,266.6195,3.2041,0,U,26464,999,2026,0,.4544E-4,0
ODIN,2001-007A,2026-06-08T01:38:43.385280,15.72855402,.00066078,97.3856,199.4433,154.2551,205.9043,0,U,26702,999,38796,.11909604E-2,.16393E-2,0
TIMED,2001-055B,2026-06-08T07:27:05.935968,14.95275258,.00006165,74.0679,252.8910,353.7651,6.3526,0,U,26998,999,32949,.13323848E-3,.1428E-4,0
CORIOLIS,2003-001A,2026-06-08T05:57:16.951968,14.19942386,.00129682,98.7126,166.2694,236.1807,123.8135,0,U,27640,999,21295,.69074378E-4,.103E-5,0
SORCE,2003-004A,2026-06-07T17:00:24.400800,15.03662902,.0017869,39.9917,315.7552,339.7662,20.2423,0,U,27651,999,27047,.25720271E-3,.3445E-4,0
MOST,2003-031D,2026-06-07T23:44:36.139488,14.21320667,.00087071,98.7045,166.8436,280.5785,79.4412,0,U,27843,999,18940,.56671972E-4,.8E-6,0
SCISAT 1,2003-036A,2026-06-08T05:51:36.167904,14.81438989,.0008689,73.9287,189.1117,258.0264,101.9939,0,U,27858,999,23012,.76268568E-4,.561E-5,0
SWIFT,2004-047A,2026-06-06T15:00:13.912128,15.67271412,.0002758,20.5528,266.3162,138.0120,222.0537,0,U,28485,999,18520,.53892E-3,.61964E-3,0
HINODE (SOLAR-B),2006-041A,2026-06-08T01:20:10.094496,14.68610972,.001644,98.0547,175.3428,321.0348,38.9672,0,U,29479,999,5353,.15323028E-3,.843E-5,0
SHIJIAN-6 02A (SJ-6 02A),2006-046A,2026-06-08T06:03:03.870432,15.16838348,.00036381,97.6363,200.2518,146.2613,213.8851,0,U,29505,999,7091,.3412072E-3,.6644E-4,0
SHIJIAN-6 02B (SJ-6 02B),2006-046B,2026-06-08T06:46:28.274880,15.01354802,.00147198,97.7162,188.3960,86.1563,274.1344,0,U,29506,999,6940,.12692173E-3,.1578E-4,0
FGRST (GLAST),2008-029A,2026-06-07T23:54:17.430048,15.23903473,.00078301,25.5826,268.3003,214.9845,145.0179,0,U,33053,999,99443,.14870933E-3,.4036E-4,0
SDO,2010-005A,2026-06-07T08:09:18.834912,1.00270991,.00014461,34.6306,86.4930,51.5823,138.0028,0,U,36395,999,5996,0,-.6E-6,0
CRYOSAT 2,2010-013A,2026-06-08T06:13:59.395872,14.51896562,.00022289,92.0348,275.1320,86.1590,273.9872,0,U,36508,999,85678,.33031022E-4,.136E-5,0
X-SAT,2011-015C,2026-06-08T05:44:30.024960,14.25203672,.00145171,98.3512,136.6893,14.4756,345.6838,0,U,37389,999,78640,.59023239E-4,.98E-6,0
GCOM-W1 (SHIZUKU),2012-025A,2026-06-08T07:43:55.748928,14.57116514,.00018657,98.2020,100.0122,81.7577,33.7504,0,U,38337,999,74774,.11956109E-3,.494E-5,0
NUSTAR,2012-031A,2026-06-08T08:00:04.000032,15.08708876,.00081861,6.0265,100.5324,327.0931,140.0296,0,U,38358,999,130,.11309991E-2,.19196E-3,0
NEOSSAT,2013-009D,2026-06-08T00:15:40.606560,14.35823288,.00097814,98.4176,339.2620,274.4637,85.5431,0,U,39089,999,69542,.68237409E-4,.155E-5,0
BRITE-AUSTRIA,2013-009F,2026-06-07T17:39:04.505184,14.36538507,.00089578,98.3993,338.4054,268.4216,91.5944,0,U,39091,999,69569,.86658115E-4,.212E-5,0
IRIS,2013-033A,2026-06-08T03:23:14.667936,14.85867394,.00242521,97.9336,358.4465,352.1034,7.9796,0,U,39197,999,69903,.13329758E-3,.1111E-4,0
HISAKI (SPRINT-A),2013-049A,2026-06-07T23:54:15.850656,13.55543740,.0136906,29.7207,266.7414,302.3712,56.3675,0,U,39253,999,63017,.88964687E-4,.131E-5,0
CASSIOPE,2013-055A,2026-06-08T05:41:46.150944,15.24378819,.02957111,80.9146,77.5817,92.4503,271.0614,0,U,39265,999,66630,.4410771E-3,.39998E-3,-.60806E-6
STSAT-3,2013-066G,2026-06-08T06:09:38.334816,15.02704361,.00109617,97.6217,129.2892,68.4546,291.7847,0,U,39422,999,68286,.23739222E-3,.3113E-4,0
SWARM B,2013-067A,2026-06-08T05:31:27.378336,15.28496929,.00033884,87.7441,345.0389,90.4307,269.7330,0,U,39451,999,68187,.12340714E-3,.3455E-4,0
